[{"OBJECT_NAME":"STARLINK-36900","OBJECT_ID":"2026-038N","EPOCH":"2026-03-08T22:00:01.999584","MEAN_MOTION":15.91895685,"ECCENTRICITY":0.0001205,"INCLINATION":97.2711,"RA_OF_ASC_NODE":78.1579,"ARG_OF_PERICENTER":75.5953,"MEAN_ANOMALY":271.5797,"EPHEMERIS_TYPE":0,"CLASSIFICATION_TYPE":"U","NORAD_CAT_ID":67973,"ELEMENT_SET_NO":999,"REV_AT_EPOCH":307,"BSTAR":-0.0049156044,"MEAN_MOTION_DOT":-0.01598108,"MEAN_MOTION_DDOT":0.00071661093},{"OBJECT_NAME":"STARLINK-36901","OBJECT_ID":"2026-038P","EPOCH":"2026-03-08T22:00:01.999584","MEAN_MOTION":15.91743366,"ECCENTRICITY":0.00012021,"INCLINATION":97.2712,"RA_OF_ASC_NODE":78.1557,"ARG_OF_PERICENTER":76.9297,"MEAN_ANOMALY":265.7888,"EPHEMERIS_TYPE":0,"CLASSIFICATION_TYPE":"U","NORAD_CAT_ID":67974,"ELEMENT_SET_NO":999,"REV_AT_EPOCH":307,"BSTAR":-0.0049748776,"MEAN_MOTION_DOT":-0.01604733,"MEAN_MOTION_DDOT":0.00072102997},{"OBJECT_NAME":"STARLINK-36883","OBJECT_ID":"2026-038Q","EPOCH":"2026-03-08T22:00:01.999584","MEAN_MOTION":15.92494368,"ECCENTRICITY":0.00012222,"INCLINATION":97.2701,"RA_OF_ASC_NODE":78.165,"ARG_OF_PERICENTER":70.2179,"MEAN_ANOMALY":294.1624,"EPHEMERIS_TYPE":0,"CLASSIFICATION_TYPE":"U","NORAD_CAT_ID":67975,"ELEMENT_SET_NO":999,"REV_AT_EPOCH":307,"BSTAR":-0.0047434792,"MEAN_MOTION_DOT":-0.01590467,"MEAN_MOTION_DDOT":0.0007145601},{"OBJECT_NAME":"STARLINK-36880","OBJECT_ID":"2026-038R","EPOCH":"2026-03-08T22:00:01.999584","MEAN_MOTION":15.92040812,"ECCENTRICITY":0.00012118,"INCLINATION":97.2708,"RA_OF_ASC_NODE":78.1595,"ARG_OF_PERICENTER":72.5879,"MEAN_ANOMALY":278.9226,"EPHEMERIS_TYPE":0,"CLASSIFICATION_TYPE":"U","NORAD_CAT_ID":67976,"ELEMENT_SET_NO":999,"REV_AT_EPOCH":307,"BSTAR":-0.0048586638,"MEAN_MOTION_DOT":-0.01591478,"MEAN_MOTION_DDOT":0.00071214331},{"OBJECT_NAME":"STARLINK-36904","OBJECT_ID":"2026-038S","EPOCH":"2026-03-08T22:00:01.999584","MEAN_MOTION":15.92337663,"ECCENTRICITY":0.0001208,"INCLINATION":97.2701,"RA_OF_ASC_NODE":78.1626,"ARG_OF_PERICENTER":75.3175,"MEAN_ANOMALY":284.7511,"EPHEMERIS_TYPE":0,"CLASSIFICATION_TYPE":"U","NORAD_CAT_ID":67977,"ELEMENT_SET_NO":999,"REV_AT_EPOCH":307,"BSTAR":-0.0047575493,"MEAN_MOTION_DOT":-0.01582435,"MEAN_MOTION_DDOT":0.00070676326},{"OBJECT_NAME":"STARLINK-36364","OBJECT_ID":"2026-038T","EPOCH":"2026-03-08T22:00:01.999584","MEAN_MOTION":15.92854563,"ECCENTRICITY":0.00012604,"INCLINATION":97.2692,"RA_OF_ASC_NODE":78.1691,"ARG_OF_PERICENTER":70.2093,"MEAN_ANOMALY":304.3262,"EPHEMERIS_TYPE":0,"CLASSIFICATION_TYPE":"U","NORAD_CAT_ID":67978,"ELEMENT_SET_NO":999,"REV_AT_EPOCH":307,"BSTAR":-0.0046476378,"MEAN_MOTION_DOT":-0.01587672,"MEAN_MOTION_DDOT":0.00071483491},{"OBJECT_NAME":"STARLINK-36359","OBJECT_ID":"2026-038U","EPOCH":"2026-03-08T22:00:01.999584","MEAN_MOTION":15.92169282,"ECCENTRICITY":0.00011555,"INCLINATION":97.2704,"RA_OF_ASC_NODE":78.1605,"ARG_OF_PERICENTER":79.7441,"MEAN_ANOMALY":275.3717,"EPHEMERIS_TYPE":0,"CLASSIFICATION_TYPE":"U","NORAD_CAT_ID":67979,"ELEMENT_SET_NO":999,"REV_AT_EPOCH":307,"BSTAR":-0.0048341073,"MEAN_MOTION_DOT":-0.01593883,"MEAN_MOTION_DDOT":0.00071506101},{"OBJECT_NAME":"STARLINK-36882","OBJECT_ID":"2026-038V","EPOCH":"2026-03-08T22:00:01.999584","MEAN_MOTION":15.92683262,"ECCENTRICITY":0.00011855,"INCLINATION":97.2695,"RA_OF_ASC_NODE":78.167,"ARG_OF_PERICENTER":72.4094,"MEAN_ANOMALY":297.3073,"EPHEMERIS_TYPE":0,"CLASSIFICATION_TYPE":"U","NORAD_CAT_ID":67980,"ELEMENT_SET_NO":999,"REV_AT_EPOCH":307,"BSTAR":-0.0046909051,"MEAN_MOTION_DOT":-0.01588282,"MEAN_MOTION_DDOT":0.00071410285},{"OBJECT_NAME":"STARLINK-36874","OBJECT_ID":"2026-038W","EPOCH":"2026-03-08T22:00:01.999584","MEAN_MOTION":15.92976246,"ECCENTRICITY":0.00012953,"INCLINATION":97.2692,"RA_OF_ASC_NODE":78.1706,"ARG_OF_PERICENTER":69.7526,"MEAN_ANOMALY":308.2991,"EPHEMERIS_TYPE":0,"CLASSIFICATION_TYPE":"U","NORAD_CAT_ID":67981,"ELEMENT_SET_NO":999,"REV_AT_EPOCH":307,"BSTAR":-0.0046121321,"MEAN_MOTION_DOT":-0.01585549,"MEAN_MOTION_DDOT":0.00071394473},{"OBJECT_NAME":"STARLINK-36879","OBJECT_ID":"2026-038X","EPOCH":"2026-03-08T22:00:01.999584","MEAN_MOTION":15.93123751,"ECCENTRICITY":0.00012008,"INCLINATION":97.2687,"RA_OF_ASC_NODE":78.1722,"ARG_OF_PERICENTER":69.4696,"MEAN_ANOMALY":312.8995,"EPHEMERIS_TYPE":0,"CLASSIFICATION_TYPE":"U","NORAD_CAT_ID":67982,"ELEMENT_SET_NO":999,"REV_AT_EPOCH":307,"BSTAR":-0.0045504836,"MEAN_MOTION_DOT":-0.01576472,"MEAN_MOTION_DDOT":0.00070744414},{"OBJECT_NAME":"STARLINK-36867","OBJECT_ID":"2026-038Y","EPOCH":"2026-03-08T22:00:01.999584","MEAN_MOTION":15.93434849,"ECCENTRICITY":0.00013646,"INCLINATION":97.2684,"RA_OF_ASC_NODE":78.1761,"ARG_OF_PERICENTER":65.6757,"MEAN_ANOMALY":325.4772,"EPHEMERIS_TYPE":0,"CLASSIFICATION_TYPE":"U","NORAD_CAT_ID":67983,"ELEMENT_SET_NO":999,"REV_AT_EPOCH":307,"BSTAR":-0.004486445,"MEAN_MOTION_DOT":-0.0157967,"MEAN_MOTION_DDOT":0.00071236762},{"OBJECT_NAME":"STARLINK-36266","OBJECT_ID":"2026-038Z","EPOCH":"2026-03-08T22:00:01.999584","MEAN_MOTION":15.93291762,"ECCENTRICITY":0.0001287,"INCLINATION":97.2685,"RA_OF_ASC_NODE":78.1746,"ARG_OF_PERICENTER":70.1742,"MEAN_ANOMALY":317.0283,"EPHEMERIS_TYPE":0,"CLASSIFICATION_TYPE":"U","NORAD_CAT_ID":67984,"ELEMENT_SET_NO":999,"REV_AT_EPOCH":304,"BSTAR":-0.0045025751,"MEAN_MOTION_DOT":-0.01573621,"MEAN_MOTION_DDOT":0.00070628197},{"OBJECT_NAME":"STARLINK-36802","OBJECT_ID":"2026-038AA","EPOCH":"2026-03-08T22:00:01.999584","MEAN_MOTION":15.93557377,"ECCENTRICITY":0.00012664,"INCLINATION":97.268,"RA_OF_ASC_NODE":78.1775,"ARG_OF_PERICENTER":76.3216,"MEAN_ANOMALY":318.443,"EPHEMERIS_TYPE":0,"CLASSIFICATION_TYPE":"U","NORAD_CAT_ID":67985,"ELEMENT_SET_NO":999,"REV_AT_EPOCH":307,"BSTAR":-0.0044374728,"MEAN_MOTION_DOT":-0.01572515,"MEAN_MOTION_DDOT":0.00070727863},{"OBJECT_NAME":"STARLINK-36535","OBJECT_ID":"2026-039A","EPOCH":"2026-03-08T22:00:01.999584","MEAN_MOTION":15.85995563,"ECCENTRICITY":0.00014929,"INCLINATION":42.9978,"RA_OF_ASC_NODE":59.695,"ARG_OF_PERICENTER":252.8674,"MEAN_ANOMALY":56.1869,"EPHEMERIS_TYPE":0,"CLASSIFICATION_TYPE":"U","NORAD_CAT_ID":67986,"ELEMENT_SET_NO":999,"REV_AT_EPOCH":275,"BSTAR":-0.0068406974,"MEAN_MOTION_DOT":-0.01535791,"MEAN_MOTION_DDOT":0},{"OBJECT_NAME":"STARLINK-36744","OBJECT_ID":"2026-039B","EPOCH":"2026-03-08T22:00:01.999584","MEAN_MOTION":15.86182592,"ECCENTRICITY":0.00016922,"INCLINATION":42.9977,"RA_OF_ASC_NODE":59.6862,"ARG_OF_PERICENTER":262.9116,"MEAN_ANOMALY":49.5296,"EPHEMERIS_TYPE":0,"CLASSIFICATION_TYPE":"U","NORAD_CAT_ID":67987,"ELEMENT_SET_NO":999,"REV_AT_EPOCH":275,"BSTAR":-0.0066730588,"MEAN_MOTION_DOT":-0.01515025,"MEAN_MOTION_DDOT":0},{"OBJECT_NAME":"STARLINK-36734","OBJECT_ID":"2026-039C","EPOCH":"2026-03-08T22:00:01.999584","MEAN_MOTION":15.86333249,"ECCENTRICITY":0.00016922,"INCLINATION":42.9976,"RA_OF_ASC_NODE":59.6768,"ARG_OF_PERICENTER":260.3725,"MEAN_ANOMALY":55.7067,"EPHEMERIS_TYPE":0,"CLASSIFICATION_TYPE":"U","NORAD_CAT_ID":67988,"ELEMENT_SET_NO":999,"REV_AT_EPOCH":275,"BSTAR":-0.0066596284,"MEAN_MOTION_DOT":-0.01522315,"MEAN_MOTION_DDOT":0},{"OBJECT_NAME":"STARLINK-36957","OBJECT_ID":"2026-039D","EPOCH":"2026-03-08T22:00:01.999584","MEAN_MOTION":15.86516713,"ECCENTRICITY":0.0001757,"INCLINATION":42.9975,"RA_OF_ASC_NODE":59.6679,"ARG_OF_PERICENTER":261.855,"MEAN_ANOMALY":57.5867,"EPHEMERIS_TYPE":0,"CLASSIFICATION_TYPE":"U","NORAD_CAT_ID":67989,"ELEMENT_SET_NO":999,"REV_AT_EPOCH":275,"BSTAR":-0.006549468,"MEAN_MOTION_DOT":-0.01512221,"MEAN_MOTION_DDOT":0},{"OBJECT_NAME":"STARLINK-36951","OBJECT_ID":"2026-039E","EPOCH":"2026-03-08T22:00:01.999584","MEAN_MOTION":15.86668041,"ECCENTRICITY":0.00017507,"INCLINATION":42.9975,"RA_OF_ASC_NODE":59.659,"ARG_OF_PERICENTER":263.5206,"MEAN_ANOMALY":59.4965,"EPHEMERIS_TYPE":0,"CLASSIFICATION_TYPE":"U","NORAD_CAT_ID":67990,"ELEMENT_SET_NO":999,"REV_AT_EPOCH":275,"BSTAR":-0.0065293913,"MEAN_MOTION_DOT":-0.01518163,"MEAN_MOTION_DDOT":0},{"OBJECT_NAME":"STARLINK-36941","OBJECT_ID":"2026-039F","EPOCH":"2026-03-08T22:00:01.999584","MEAN_MOTION":15.86870219,"ECCENTRICITY":0.00014156,"INCLINATION":42.9973,"RA_OF_ASC_NODE":59.6506,"ARG_OF_PERICENTER":252.0873,"MEAN_ANOMALY":74.1177,"EPHEMERIS_TYPE":0,"CLASSIFICATION_TYPE":"U","NORAD_CAT_ID":67991,"ELEMENT_SET_NO":999,"REV_AT_EPOCH":275,"BSTAR":-0.006424647,"MEAN_MOTION_DOT":-0.01509734,"MEAN_MOTION_DDOT":0},{"OBJECT_NAME":"STARLINK-36950","OBJECT_ID":"2026-039G","EPOCH":"2026-03-08T22:00:01.999584","MEAN_MOTION":15.87012835,"ECCENTRICITY":0.00017808,"INCLINATION":42.9975,"RA_OF_ASC_NODE":59.6418,"ARG_OF_PERICENTER":258.0557,"MEAN_ANOMALY":71.6466,"EPHEMERIS_TYPE":0,"CLASSIFICATION_TYPE":"U","NORAD_CAT_ID":67992,"ELEMENT_SET_NO":999,"REV_AT_EPOCH":275,"BSTAR":-0.0063536996,"MEAN_MOTION_DOT":-0.01504707,"MEAN_MOTION_DDOT":0},{"OBJECT_NAME":"STARLINK-36975","OBJECT_ID":"2026-039H","EPOCH":"2026-03-08T22:00:01.999584","MEAN_MOTION":15.87172726,"ECCENTRICITY":0.00017766,"INCLINATION":42.9975,"RA_OF_ASC_NODE":59.6333,"ARG_OF_PERICENTER":263.8349,"MEAN_ANOMALY":69.2484,"EPHEMERIS_TYPE":0,"CLASSIFICATION_TYPE":"U","NORAD_CAT_ID":67993,"ELEMENT_SET_NO":999,"REV_AT_EPOCH":275,"BSTAR":-0.0062804861,"MEAN_MOTION_DOT":-0.01499918,"MEAN_MOTION_DDOT":0},{"OBJECT_NAME":"STARLINK-36993","OBJECT_ID":"2026-039J","EPOCH":"2026-03-08T22:00:01.999584","MEAN_MOTION":15.87320123,"ECCENTRICITY":0.00017258,"INCLINATION":42.9974,"RA_OF_ASC_NODE":59.6249,"ARG_OF_PERICENTER":264.0931,"MEAN_ANOMALY":72.4983,"EPHEMERIS_TYPE":0,"CLASSIFICATION_TYPE":"U","NORAD_CAT_ID":67994,"ELEMENT_SET_NO":999,"REV_AT_EPOCH":275,"BSTAR":-0.0062743952,"MEAN_MOTION_DOT":-0.0150839,"MEAN_MOTION_DDOT":0},{"OBJECT_NAME":"STARLINK-36968","OBJECT_ID":"2026-039K","EPOCH":"2026-03-08T22:00:01.999584","MEAN_MOTION":15.8752559,"ECCENTRICITY":0.00017211,"INCLINATION":42.9974,"RA_OF_ASC_NODE":59.6052,"ARG_OF_PERICENTER":261.4826,"MEAN_ANOMALY":82.8033,"EPHEMERIS_TYPE":0,"CLASSIFICATION_TYPE":"U","NORAD_CAT_ID":67995,"ELEMENT_SET_NO":999,"REV_AT_EPOCH":275,"BSTAR":-0.0064486601,"MEAN_MOTION_DOT":-0.01559337,"MEAN_MOTION_DDOT":0}]
